[{"OBJECT_NAME":"EZIE-B","OBJECT_ID":"2025-052AS","EPOCH":"2026-03-09T23:09:37.705536","MEAN_MOTION":14.96286279,"ECCENTRICITY":0.00040038,"INCLINATION":97.7009,"RA_OF_ASC_NODE":322.7783,"ARG_OF_PERICENTER":146.8572,"MEAN_ANOMALY":213.2901,"EPHEMERIS_TYPE":0,"CLASSIFICATION_TYPE":"U","NORAD_CAT_ID":63250,"ELEMENT_SET_NO":999,"REV_AT_EPOCH":5382,"BSTAR":0.00063815223,"MEAN_MOTION_DOT":7.158e-5,"MEAN_MOTION_DDOT":0},{"OBJECT_NAME":"STARLINK-36209","OBJECT_ID":"2025-293V","EPOCH":"2026-03-09T04:15:53.702496","MEAN_MOTION":14.98321732,"ECCENTRICITY":0.00026387,"INCLINATION":70.001,"RA_OF_ASC_NODE":95.6454,"ARG_OF_PERICENTER":266.3087,"MEAN_ANOMALY":93.777,"EPHEMERIS_TYPE":0,"CLASSIFICATION_TYPE":"U","NORAD_CAT_ID":67022,"ELEMENT_SET_NO":999,"REV_AT_EPOCH":1481,"BSTAR":-0.00072279762,"MEAN_MOTION_DOT":-8.704e-5,"MEAN_MOTION_DDOT":0}]
